{
  "type": "FeatureCollection",
  "features": [
    {
      "type": "Feature",
      "properties": {
        "norad_id": 34765,
        "name": "IRIDIUM 33 DEB",
        "group": "iridium-33-debris",
        "lat": 19.43290124906283,
        "lon": 34.432431877758205,
        "alt_km": 767.7641121415681,
        "timestamp": "2025-12-11T20:41:15.466012+00:00",
        "meta_object_name": "IRIDIUM 33 DEB",
        "meta_object_id": "1997-051LJ",
        "meta_epoch": "2025-12-11T14:38:05.129376",
        "meta_mean_motion": 14.40460694,
        "meta_eccentricity": 0.00153204,
        "meta_inclination": 86.3396,
        "meta_ra_of_asc_node": 33.2465,
        "meta_arg_of_pericenter": 215.3687,
        "meta_mean_anomaly": 297.1612,
        "meta_ephemeris_type": 0,
        "meta_classification_type": "U",
        "meta_norad_cat_id": 34765,
        "meta_element_set_no": 999,
        "meta_rev_at_epoch": 87597,
        "meta_bstar": 0.00062745119,
        "meta_mean_motion_dot": 2.016e-05,
        "meta_mean_motion_ddot": 0,
        "tle_line1": "1 34765U 97051LJ  25345.60978159  .00002016  00000+0  62745-3 0  9996",
        "tle_line2": "2 34765  86.3396  33.2465 0015320 215.3687 297.1612 14.40460694875970"
      },
      "geometry": {
        "type": "Point",
        "coordinates": [
          34.432431877758205,
          19.43290124906283
        ]
      }
    },
    {
      "type": "Feature",
      "properties": {
        "norad_id": 34833,
        "name": "IRIDIUM 33 DEB",
        "group": "iridium-33-debris",
        "lat": 85.55282513133645,
        "lon": 105.58161429104561,
        "alt_km": 695.4166599591608,
        "timestamp": "2025-12-11T20:41:15.466022+00:00",
        "meta_object_name": "IRIDIUM 33 DEB",
        "meta_object_id": "1997-051MH",
        "meta_epoch": "2025-12-10T23:03:13.627296",
        "meta_mean_motion": 14.52360033,
        "meta_eccentricity": 0.00218068,
        "meta_inclination": 86.3925,
        "meta_ra_of_asc_node": 51.7603,
        "meta_arg_of_pericenter": 104.0479,
        "meta_mean_anomaly": 313.4117,
        "meta_ephemeris_type": 0,
        "meta_classification_type": "U",
        "meta_norad_cat_id": 34833,
        "meta_element_set_no": 999,
        "meta_rev_at_epoch": 87689,
        "meta_bstar": 0.0011952605,
        "meta_mean_motion_dot": 4.899e-05,
        "meta_mean_motion_ddot": 0,
        "tle_line1": "1 34833U 97051MH  25344.96057439  .00004899  00000+0  11953-2 0  9994",
        "tle_line2": "2 34833  86.3925  51.7603 0021806 104.0479 313.4117 14.52360033876895"
      },
      "geometry": {
        "type": "Point",
        "coordinates": [
          105.58161429104561,
          85.55282513133645
        ]
      }
    },
    {
      "type": "Feature",
      "properties": {
        "norad_id": 34870,
        "name": "IRIDIUM 33 DEB",
        "group": "iridium-33-debris",
        "lat": -16.380012274310687,
        "lon": -46.600688998043964,
        "alt_km": 655.9946226169877,
        "timestamp": "2025-12-11T20:41:15.466047+00:00",
        "meta_object_name": "IRIDIUM 33 DEB",
        "meta_object_id": "1997-051MQ",
        "meta_epoch": "2025-12-10T16:16:47.325792",
        "meta_mean_motion": 14.76360658,
        "meta_eccentricity": 0.00158788,
        "meta_inclination": 86.3108,
        "meta_ra_of_asc_node": 315.0279,
        "meta_arg_of_pericenter": 190.0668,
        "meta_mean_anomaly": 346.5866,
        "meta_ephemeris_type": 0,
        "meta_classification_type": "U",
        "meta_norad_cat_id": 34870,
        "meta_element_set_no": 999,
        "meta_rev_at_epoch": 88880,
        "meta_bstar": 0.0023954817,
        "meta_mean_motion_dot": 0.00016709,
        "meta_mean_motion_ddot": 0,
        "tle_line1": "1 34870U 97051MQ  25344.67832553  .00016709  00000+0  23955-2 0  9999",
        "tle_line2": "2 34870  86.3108 315.0279 0015878 190.0668 346.5866 14.76360658888802"
      },
      "geometry": {
        "type": "Point",
        "coordinates": [
          -46.600688998043964,
          -16.380012274310687
        ]
      }
    },
    {
      "type": "Feature",
      "properties": {
        "norad_id": 34896,
        "name": "IRIDIUM 33 DEB",
        "group": "iridium-33-debris",
        "lat": -36.806291987583506,
        "lon": 149.83245673814875,
        "alt_km": 662.4071322326126,
        "timestamp": "2025-12-11T20:41:15.466059+00:00",
        "meta_object_name": "IRIDIUM 33 DEB",
        "meta_object_id": "1997-051MY",
        "meta_epoch": "2025-12-11T06:54:08.257248",
        "meta_mean_motion": 14.66256347,
        "meta_eccentricity": 0.00241983,
        "meta_inclination": 86.3294,
        "meta_ra_of_asc_node": 327.3367,
        "meta_arg_of_pericenter": 219.9786,
        "meta_mean_anomaly": 206.8534,
        "meta_ephemeris_type": 0,
        "meta_classification_type": "U",
        "meta_norad_cat_id": 34896,
        "meta_element_set_no": 999,
        "meta_rev_at_epoch": 87598,
        "meta_bstar": 0.0017967326,
        "meta_mean_motion_dot": 9.969e-05,
        "meta_mean_motion_ddot": 0,
        "tle_line1": "1 34896U 97051MY  25345.28759557  .00009969  00000+0  17967-2 0  9993",
        "tle_line2": "2 34896  86.3294 327.3367 0024198 219.9786 206.8534 14.66256347875980"
      },
      "geometry": {
        "type": "Point",
        "coordinates": [
          149.83245673814875,
          -36.806291987583506
        ]
      }
    },
    {
      "type": "Feature",
      "properties": {
        "norad_id": 34926,
        "name": "IRIDIUM 33 DEB",
        "group": "iridium-33-debris",
        "lat": -18.64333580489606,
        "lon": 7.371877639848334,
        "alt_km": 678.8828421991611,
        "timestamp": "2025-12-11T20:41:15.466070+00:00",
        "meta_object_name": "IRIDIUM 33 DEB",
        "meta_object_id": "1997-051NF",
        "meta_epoch": "2025-12-11T01:05:29.819328",
        "meta_mean_motion": 14.54283993,
        "meta_eccentricity": 0.00757067,
        "meta_inclination": 86.1321,
        "meta_ra_of_asc_node": 9.0582,
        "meta_arg_of_pericenter": 298.5987,
        "meta_mean_anomaly": 90.146,
        "meta_ephemeris_type": 0,
        "meta_classification_type": "U",
        "meta_norad_cat_id": 34926,
        "meta_element_set_no": 999,
        "meta_rev_at_epoch": 86432,
        "meta_bstar": 0.0083538341,
        "meta_mean_motion_dot": 0.00036974,
        "meta_mean_motion_ddot": 0,
        "tle_line1": "1 34926U 97051NF  25345.04548402  .00036974  00000+0  83538-2 0  9999",
        "tle_line2": "2 34926  86.1321   9.0582 0075706 298.5987  90.1460 14.54283993864325"
      },
      "geometry": {
        "type": "Point",
        "coordinates": [
          7.371877639848334,
          -18.64333580489606
        ]
      }
    },
    {
      "type": "Feature",
      "properties": {
        "norad_id": 34985,
        "name": "IRIDIUM 33 DEB",
        "group": "iridium-33-debris",
        "lat": 35.13508752124158,
        "lon": -125.30703880630762,
        "alt_km": 746.5618592309593,
        "timestamp": "2025-12-11T20:41:15.466080+00:00",
        "meta_object_name": "IRIDIUM 33 DEB",
        "meta_object_id": "1997-051NR",
        "meta_epoch": "2025-12-11T11:45:25.383168",
        "meta_mean_motion": 14.42002723,
        "meta_eccentricity": 0.00206039,
        "meta_inclination": 86.3696,
        "meta_ra_of_asc_node": 57.4124,
        "meta_arg_of_pericenter": 224.0438,
        "meta_mean_anomaly": 150.4182,
        "meta_ephemeris_type": 0,
        "meta_classification_type": "U",
        "meta_norad_cat_id": 34985,
        "meta_element_set_no": 999,
        "meta_rev_at_epoch": 87157,
        "meta_bstar": 0.0012198986,
        "meta_mean_motion_dot": 4.029e-05,
        "meta_mean_motion_ddot": 0,
        "tle_line1": "1 34985U 97051NR  25345.48987712  .00004029  00000+0  12199-2 0  9994",
        "tle_line2": "2 34985  86.3696  57.4124 0020603 224.0438 150.4182 14.42002723871570"
      },
      "geometry": {
        "type": "Point",
        "coordinates": [
          -125.30703880630762,
          35.13508752124158
        ]
      }
    },
    {
      "type": "Feature",
      "properties": {
        "norad_id": 35051,
        "name": "IRIDIUM 33 DEB",
        "group": "iridium-33-debris",
        "lat": 59.708481882514064,
        "lon": 15.562390937338007,
        "alt_km": 721.4863579802995,
        "timestamp": "2025-12-11T20:41:15.466091+00:00",
        "meta_object_name": "IRIDIUM 33 DEB",
        "meta_object_id": "1997-051NX",
        "meta_epoch": "2025-12-11T08:47:57.045408",
        "meta_mean_motion": 14.47588957,
        "meta_eccentricity": 0.00106566,
        "meta_inclination": 86.3243,
        "meta_ra_of_asc_node": 9.4603,
        "meta_arg_of_pericenter": 94.8899,
        "meta_mean_anomaly": 265.3522,
        "meta_ephemeris_type": 0,
        "meta_classification_type": "U",
        "meta_norad_cat_id": 35051,
        "meta_element_set_no": 999,
        "meta_rev_at_epoch": 86976,
        "meta_bstar": 0.001042299,
        "meta_mean_motion_dot": 3.858e-05,
        "meta_mean_motion_ddot": 0,
        "tle_line1": "1 35051U 97051NX  25345.36663247  .00003858  00000+0  10423-2 0  9997",
        "tle_line2": "2 35051  86.3243   9.4603 0010656  94.8899 265.3522 14.47588957869768"
      },
      "geometry": {
        "type": "Point",
        "coordinates": [
          15.562390937338007,
          59.708481882514064
        ]
      }
    }
  ]
}